CCSDS_OMM_VERS = 2.0
CREATION_DATE  = 
ORIGINATOR     = 

OBJECT_NAME    = SOYUZ-MS 28
OBJECT_ID      = 2025-275A
CENTER_NAME    = EARTH
REF_FRAME      = TEME
TIME_SYSTEM    = UTC
MEAN_ELEMENT_THEORY = SGP/SGP4

EPOCH          = 2025-12-23T04:21:36.091008
MEAN_MOTION    = 15.49746572
ECCENTRICITY   = .00031904
INCLINATION    = 51.6323
RA_OF_ASC_NODE = 90.7678
ARG_OF_PERICENTER = 289.6661
MEAN_ANOMALY   = 70.3984

EPHEMERIS_TYPE = 0
CLASSIFICATION_TYPE = U
NORAD_CAT_ID   = 66664
ELEMENT_SET_NO = 999
REV_AT_EPOCH   = 128
BSTAR          = .21350548E-3
MEAN_MOTION_DOT = .11641E-3
MEAN_MOTION_DDOT = 0

CCSDS_OMM_VERS = 2.0
CREATION_DATE  = 
ORIGINATOR     = 

OBJECT_NAME    = 1998-067XS
OBJECT_ID      = 1998-067XS
CENTER_NAME    = EARTH
REF_FRAME      = TEME
TIME_SYSTEM    = UTC
MEAN_ELEMENT_THEORY = SGP/SGP4

EPOCH          = 2025-12-22T11:01:48.942336
MEAN_MOTION    = 15.51071617
ECCENTRICITY   = .00028954
INCLINATION    = 51.6319
RA_OF_ASC_NODE = 94.1970
ARG_OF_PERICENTER = 250.8689
MEAN_ANOMALY   = 109.1987

EPHEMERIS_TYPE = 0
CLASSIFICATION_TYPE = U
NORAD_CAT_ID   = 66906
ELEMENT_SET_NO = 999
REV_AT_EPOCH   = 312
BSTAR          = .51361561E-3
MEAN_MOTION_DOT = .30106E-3
MEAN_MOTION_DDOT = 0

CCSDS_OMM_VERS = 2.0
CREATION_DATE  = 
ORIGINATOR     = 

OBJECT_NAME    = 1998-067XT
OBJECT_ID      = 1998-067XT
CENTER_NAME    = EARTH
REF_FRAME      = TEME
TIME_SYSTEM    = UTC
MEAN_ELEMENT_THEORY = SGP/SGP4

EPOCH          = 2025-12-22T07:41:32.890848
MEAN_MOTION    = 15.52583192
ECCENTRICITY   = .00038425
INCLINATION    = 51.6311
RA_OF_ASC_NODE = 94.7687
ARG_OF_PERICENTER = 286.1212
MEAN_ANOMALY   = 73.9355

EPHEMERIS_TYPE = 0
CLASSIFICATION_TYPE = U
NORAD_CAT_ID   = 66907
ELEMENT_SET_NO = 999
REV_AT_EPOCH   = 310
BSTAR          = .11084243E-2
MEAN_MOTION_DOT = .69527E-3
MEAN_MOTION_DDOT = 0

CCSDS_OMM_VERS = 2.0
CREATION_DATE  = 
ORIGINATOR     = 

OBJECT_NAME    = 1998-067XU
OBJECT_ID      = 1998-067XU
CENTER_NAME    = EARTH
REF_FRAME      = TEME
TIME_SYSTEM    = UTC
MEAN_ELEMENT_THEORY = SGP/SGP4

EPOCH          = 2025-12-22T12:18:16.541280
MEAN_MOTION    = 15.52707663
ECCENTRICITY   = .00038713
INCLINATION    = 51.6310
RA_OF_ASC_NODE = 93.8007
ARG_OF_PERICENTER = 283.9304
MEAN_ANOMALY   = 76.1255

EPHEMERIS_TYPE = 0
CLASSIFICATION_TYPE = U
NORAD_CAT_ID   = 66908
ELEMENT_SET_NO = 999
REV_AT_EPOCH   = 313
BSTAR          = .10107547E-2
MEAN_MOTION_DOT = .63598E-3
MEAN_MOTION_DDOT = 0

CCSDS_OMM_VERS = 2.0
CREATION_DATE  = 
ORIGINATOR     = 

OBJECT_NAME    = SILVERSAT
OBJECT_ID      = 1998-067XV
CENTER_NAME    = EARTH
REF_FRAME      = TEME
TIME_SYSTEM    = UTC
MEAN_ELEMENT_THEORY = SGP/SGP4

EPOCH          = 2025-12-22T12:16:28.422912
MEAN_MOTION    = 15.52898333
ECCENTRICITY   = .0003866
INCLINATION    = 51.6306
RA_OF_ASC_NODE = 93.7929
ARG_OF_PERICENTER = 288.2093
MEAN_ANOMALY   = 71.8476

EPHEMERIS_TYPE = 0
CLASSIFICATION_TYPE = U
NORAD_CAT_ID   = 66909
ELEMENT_SET_NO = 999
REV_AT_EPOCH   = 313
BSTAR          = .11325313E-2
MEAN_MOTION_DOT = .71888E-3
MEAN_MOTION_DDOT = 0

CCSDS_OMM_VERS = 2.0
CREATION_DATE  = 
ORIGINATOR     = 

OBJECT_NAME    = 1998-067XW
OBJECT_ID      = 1998-067XW
CENTER_NAME    = EARTH
REF_FRAME      = TEME
TIME_SYSTEM    = UTC
MEAN_ELEMENT_THEORY = SGP/SGP4

EPOCH          = 2025-12-23T06:45:57.042144
MEAN_MOTION    = 15.52963068
ECCENTRICITY   = .00039303
INCLINATION    = 51.6302
RA_OF_ASC_NODE = 89.9385
ARG_OF_PERICENTER = 266.0255
MEAN_ANOMALY   = 94.0285

EPHEMERIS_TYPE = 0
CLASSIFICATION_TYPE = U
NORAD_CAT_ID   = 66910
ELEMENT_SET_NO = 999
REV_AT_EPOCH   = 325
BSTAR          = .10076721E-2
MEAN_MOTION_DOT = .63997E-3
MEAN_MOTION_DDOT = 0

CCSDS_OMM_VERS = 2.0
CREATION_DATE  = 
ORIGINATOR     = 

OBJECT_NAME    = 1998-067XX
OBJECT_ID      = 1998-067XX
CENTER_NAME    = EARTH
REF_FRAME      = TEME
TIME_SYSTEM    = UTC
MEAN_ELEMENT_THEORY = SGP/SGP4

EPOCH          = 2025-12-23T06:41:16.956672
MEAN_MOTION    = 15.53428258
ECCENTRICITY   = .00036741
INCLINATION    = 51.6305
RA_OF_ASC_NODE = 89.9162
ARG_OF_PERICENTER = 271.3133
MEAN_ANOMALY   = 88.7437

EPHEMERIS_TYPE = 0
CLASSIFICATION_TYPE = U
NORAD_CAT_ID   = 66911
ELEMENT_SET_NO = 999
REV_AT_EPOCH   = 324
BSTAR          = .11217181E-2
MEAN_MOTION_DOT = .72588E-3
MEAN_MOTION_DDOT = 0

CCSDS_OMM_VERS = 2.0
CREATION_DATE  = 
ORIGINATOR     = 

OBJECT_NAME    = 1998-067XY
OBJECT_ID      = 1998-067XY
CENTER_NAME    = EARTH
REF_FRAME      = TEME
TIME_SYSTEM    = UTC
MEAN_ELEMENT_THEORY = SGP/SGP4

EPOCH          = 2025-12-22T13:57:42.061248
MEAN_MOTION    = 15.52056622
ECCENTRICITY   = .00039127
INCLINATION    = 51.6324
RA_OF_ASC_NODE = 93.5129
ARG_OF_PERICENTER = 278.0711
MEAN_ANOMALY   = 81.9835

EPHEMERIS_TYPE = 0
CLASSIFICATION_TYPE = U
NORAD_CAT_ID   = 66912
ELEMENT_SET_NO = 999
REV_AT_EPOCH   = 313
BSTAR          = .86867978E-3
MEAN_MOTION_DOT = .5325E-3
MEAN_MOTION_DDOT = 0

